[{"OBJECT_NAME":"QIANFAN-60","OBJECT_ID":"2025-016F","EPOCH":"2026-03-09T22:52:30.176256","MEAN_MOTION":13.51009615,"ECCENTRICITY":0.00179638,"INCLINATION":88.9667,"RA_OF_ASC_NODE":94.0315,"ARG_OF_PERICENTER":92.0589,"MEAN_ANOMALY":268.262,"EPHEMERIS_TYPE":0,"CLASSIFICATION_TYPE":"U","NORAD_CAT_ID":62790,"ELEMENT_SET_NO":999,"REV_AT_EPOCH":5900,"BSTAR":4.4136125e-5,"MEAN_MOTION_DOT":4.1e-7,"MEAN_MOTION_DDOT":0},{"OBJECT_NAME":"COSMOS 1275 DEB","OBJECT_ID":"1981-053SQ","EPOCH":"2026-03-02T22:08:51.254016","MEAN_MOTION":13.73205001,"ECCENTRICITY":0.0101117,"INCLINATION":82.9006,"RA_OF_ASC_NODE":134.2744,"ARG_OF_PERICENTER":289.1422,"MEAN_ANOMALY":197.3998,"EPHEMERIS_TYPE":0,"CLASSIFICATION_TYPE":"U","NORAD_CAT_ID":42176,"ELEMENT_SET_NO":999,"REV_AT_EPOCH":61441,"BSTAR":0.00093872,"MEAN_MOTION_DOT":9.15e-6,"MEAN_MOTION_DDOT":0}]
